[{"OBJECT_NAME":"STARLINK-35939","OBJECT_ID":"2025-268AD","EPOCH":"2026-03-09T02:21:32.773536","MEAN_MOTION":15.27559241,"ECCENTRICITY":0.00015039,"INCLINATION":43.0045,"RA_OF_ASC_NODE":350.0257,"ARG_OF_PERICENTER":267.1798,"MEAN_ANOMALY":92.8881,"EPHEMERIS_TYPE":0,"CLASSIFICATION_TYPE":"U","NORAD_CAT_ID":66584,"ELEMENT_SET_NO":999,"REV_AT_EPOCH":1787,"BSTAR":0.0013505946,"MEAN_MOTION_DOT":0.00037067,"MEAN_MOTION_DDOT":0},{"OBJECT_NAME":"SL-3 R\/B","OBJECT_ID":"1982-027B","EPOCH":"2026-03-09T22:44:40.208640","MEAN_MOTION":15.28335844,"ECCENTRICITY":0.00065199,"INCLINATION":81.188,"RA_OF_ASC_NODE":37.4466,"ARG_OF_PERICENTER":276.581,"MEAN_ANOMALY":83.4683,"EPHEMERIS_TYPE":0,"CLASSIFICATION_TYPE":"U","NORAD_CAT_ID":13121,"ELEMENT_SET_NO":999,"REV_AT_EPOCH":39859,"BSTAR":0.00030526741,"MEAN_MOTION_DOT":8.453e-5,"MEAN_MOTION_DDOT":0}]
